{
    "elements": [
        {
            "id": 654007263,
            "lat": 59.9715314,
            "lon": 30.3465221,
            "tags": {
                "addr:housenumber": "14 к1",
                "addr:street": "улица Смолячкова",
                "amenity": "university",
                "name": "АНОО ВПО \"Межрегиональный институт Экономики и Права при МПА ЕврАзЭС\""
            }
        },
        {
            "id": 841432738,
            "lat": 59.9464697,
            "lon": 30.2335144,
            "tags": {
                "addr:housenumber": "38",
                "addr:street": "улица Беринга",
                "amenity": "university",
                "name": "Арктический и антарктический научно-исследовательский институт",
                "website": "http://www.aari.ru/"
            }
        },
        {
            "id": 906807346,
            "lat": 59.8595384,
            "lon": 30.324109,
            "tags": {
                "amenity": "university",
                "name": "Университет ИТМО",
                "website": "http://itmo.ru"
            }
        },
        {
            "id": 951709311,
            "lat": 59.9382023,
            "lon": 30.2830356,
            "tags": {
                "amenity": "university",
                "name": "Северо-западная академия государственной службы"
            }
        },
        {
            "id": 965247539,
            "lat": 59.9357815,
            "lon": 30.2826638,
            "tags": {
                "amenity": "university",
                "name": "Институт русского языка и культуры",
                "website": "http://www.russian4foreigners.com/"
            }
        },
        {
            "id": 965318360,
            "lat": 59.9367644,
            "lon": 30.2796848,
            "tags": {
                "addr:housenumber": "3/30",
                "addr:street": "10-я линия В.О.",
                "amenity": "university",
                "name": "Государственный университет Высшая школа экономики",
                "website": "https://spb.hse.ru/"
            }
        },
        {
            "id": 965318381,
            "lat": 59.9360349,
            "lon": 30.2831308,
            "tags": {
                "amenity": "university",
                "name": "Факультет филологии и искусств, институт искусств"
            }
        },
        {
            "id": 977892426,
            "lat": 59.9407969,
            "lon": 30.2818005,
            "tags": {
                "amenity": "university",
                "name": "Факультет филологии и искусств СПбГУ"
            }
        },
        {
            "id": 1305132733,
            "lat": 59.888968,
            "lon": 30.2718902,
            "tags": {
                "addr:housenumber": "30",
                "addr:street": "проспект Стачек",
                "amenity": "university",
                "name": "Институт Народов Севера заочное отделение"
            }
        },
        {
            "id": 1333122584,
            "lat": 59.9836098,
            "lon": 30.4355574,
            "tags": {
                "amenity": "university",
                "name": "Северо-Западный государственный медицинский университет имени Ильи Ильича Мечникова",
                "website": "http://www.mechnik.spb.ru/"
            }
        },
        {
            "id": 1465462821,
            "lat": 59.932691,
            "lon": 30.3845529,
            "tags": {
                "amenity": "university",
                "name": "Санкт-Петербургский институт управления и права",
                "website": "http://www.spigl.ru/"
            }
        },
        {
            "id": 1536483942,
            "lat": 59.940461,
            "lon": 30.2687194,
            "tags": {
                "addr:housenumber": "57/43",
                "addr:street": "Средний проспект В.О.",
                "amenity": "university",
                "name": "Северо-Западная академия государственной службы"
            }
        },
        {
            "id": 1556143308,
            "lat": 59.9051373,
            "lon": 30.3192114,
            "tags": {
                "amenity": "university",
                "name": "Институт детства РГПУ им. Герцена",
                "website": "http://www.herzenid.ru/"
            }
        },
        {
            "id": 1580069935,
            "lat": 59.9950535,
            "lon": 30.3441791,
            "tags": {
                "amenity": "university"
            }
        },
        {
            "id": 1674397491,
            "lat": 59.9931102,
            "lon": 30.3337721,
            "tags": {
                "amenity": "university"
            }
        },
        {
            "id": 1681287261,
            "lat": 60.0099277,
            "lon": 30.3522872,
            "tags": {
                "amenity": "university",
                "name": "Государственная педиатрическая медицинская академия Кафедра физической культуры"
            }
        },
        {
            "id": 1699997320,
            "lat": 60.0212454,
            "lon": 30.3263033,
            "tags": {
                "amenity": "university",
                "name": "Колледж экономики и права"
            }
        },
        {
            "id": 1901190935,
            "lat": 59.8819866,
            "lon": 29.8288339,
            "tags": {
                "amenity": "university",
                "name": "ресурсный центр «Физические методы исследования поверхности»"
            }
        },
        {
            "id": 2283238344,
            "lat": 59.9417734,
            "lon": 30.3467838,
            "tags": {
                "amenity": "university",
                "name": "Институт дизайна пространственной среды",
                "website": "http://idps.sutd.ru/"
            }
        },
        {
            "id": 2283416268,
            "lat": 59.9396765,
            "lon": 30.3453619,
            "tags": {
                "amenity": "university",
                "name": "Институт дизайна и декоративно-прикладного искусства",
                "website": "http://spbsseu.ru/"
            }
        },
        {
            "id": 2395038184,
            "lat": 59.93561,
            "lon": 30.2690489,
            "tags": {
                "addr:housenumber": "61",
                "addr:street": "Большой проспект В.О.",
                "amenity": "university",
                "name": "Институт проблем машиноведения РАН",
                "website": "http://www.ipme.ru/ipme/ru/indexr.html"
            }
        },
        {
            "id": 2450879319,
            "lat": 59.9658158,
            "lon": 30.397165,
            "tags": {
                "addr:housenumber": "14",
                "addr:street": "Полюстровский проспект",
                "amenity": "university",
                "name": "Санкт-Петербургский институт машиностроения",
                "website": "http://pimash.spb.ru/"
            }
        },
        {
            "id": 2504511179,
            "lat": 59.9908123,
            "lon": 30.2593435,
            "tags": {
                "addr:housenumber": "7",
                "addr:street": "Торфяная дорога",
                "amenity": "university",
                "name": "Учебный центр экспортного контроля",
                "website": "https://www.excont.org/"
            }
        },
        {
            "id": 2653910988,
            "lat": 59.9401382,
            "lon": 30.3850924,
            "tags": {
                "amenity": "university",
                "name": "Учебный комплекс"
            }
        },
        {
            "id": 2814787589,
            "lat": 59.9292242,
            "lon": 30.2694978,
            "tags": {
                "amenity": "university",
                "name": "Горный университет"
            }
        },
        {
            "id": 2815197301,
            "lat": 59.9255402,
            "lon": 30.2546074,
            "tags": {
                "amenity": "university",
                "name": "Государственный университет морского и речного флота им. адмирала С.О. Макарова",
                "website": "https://gumrf.ru/"
            }
        },
        {
            "id": 2958665221,
            "lat": 59.9451276,
            "lon": 30.382998,
            "tags": {
                "amenity": "university",
                "name": "Санкт-Петербургский университет сервиса и экономики"
            }
        },
        {
            "id": 3390955925,
            "lat": 59.9869036,
            "lon": 30.4001298,
            "tags": {
                "amenity": "university",
                "name": "Санкт-Петербургский медико-социальный институт",
                "website": "https://medinstitut.org/"
            }
        },
        {
            "id": 3493599140,
            "lat": 59.9450243,
            "lon": 30.3784032,
            "tags": {
                "amenity": "university",
                "name": "Факультет экономики",
                "website": "http://www.econ.spbu.ru/"
            }
        },
        {
            "id": 4346148658,
            "lat": 59.9651991,
            "lon": 30.28958,
            "tags": {
                "amenity": "university",
                "name": "Балтийская академия туризма и предпринимательства",
                "website": "http://batp.ru/"
            }
        },
        {
            "id": 4592836295,
            "lat": 59.912195,
            "lon": 30.290057,
            "tags": {
                "amenity": "university",
                "name": "Санкт-Петербургский университет технологий управления и экономики"
            }
        },
        {
            "id": 5117172421,
            "lat": 59.9480798,
            "lon": 30.3427057,
            "tags": {
                "addr:housenumber": "3А",
                "addr:street": "Гагаринская улица",
                "amenity": "university",
                "name": "Европейский университет в Санкт-Петербурге",
                "website": "https://eu.spb.ru/"
            }
        },
        {
            "id": 5165152988,
            "lat": 59.9723526,
            "lon": 30.3116863,
            "tags": {
                "addr:housenumber": "23",
                "addr:street": "улица Профессора Попова",
                "amenity": "university",
                "name": "«Газпром корпоративный институт»"
            }
        },
        {
            "id": 5216578399,
            "lat": 59.9337617,
            "lon": 30.3164117,
            "tags": {
                "amenity": "university",
                "name": "Санкт-Петербургский государственный университет телекоммуникаций, факультет Цифровой Экономики, Управления и Бизнес-Информатики",
                "website": "http://www.fem-sut.spb.ru/"
            }
        },
        {
            "id": 5298530806,
            "lat": 59.9340721,
            "lon": 30.3391056,
            "tags": {
                "amenity": "university",
                "name": "Международный банковский институт имени Анатолия Собчака"
            }
        },
        {
            "id": 5298551772,
            "lat": 59.9348329,
            "lon": 30.3378985,
            "tags": {
                "amenity": "university",
                "name": "Международный банковский институт",
                "website": "http://www.ibispb.ru/"
            }
        },
        {
            "id": 5462848005,
            "lat": 59.9382243,
            "lon": 30.3485761,
            "tags": {
                "amenity": "university",
                "name": "Санкт-Петербургский институт внешнеэкономических связей, экономики и права",
                "website": "https://ivesep.spb.ru/"
            }
        },
        {
            "id": 5561505999,
            "lat": 59.946666,
            "lon": 30.3547035,
            "tags": {
                "amenity": "university",
                "name": "Французский университетский колледж",
                "website": "http://cuf.spbu.ru/"
            }
        },
        {
            "id": 5618607884,
            "lat": 59.9362051,
            "lon": 30.343131,
            "tags": {
                "amenity": "university",
                "name": "Русская христианская гуманитарная академия",
                "website": "https://rhga.ru/"
            }
        },
        {
            "id": 5650397689,
            "lat": 59.9439923,
            "lon": 30.2896891,
            "tags": {
                "amenity": "university",
                "name": "Северо-Западный институт управления"
            }
        },
        {
            "id": 6458217924,
            "lat": 59.9617754,
            "lon": 30.3088989,
            "tags": {
                "amenity": "university",
                "name": "Санкт-Петербургский институт экономики и управления",
                "website": "www.spbiem.ru"
            }
        },
        {
            "id": 6470873888,
            "lat": 59.9899806,
            "lon": 30.3059687,
            "tags": {
                "amenity": "university",
                "name": "Санкт-петербургский государственный институт культуры"
            }
        },
        {
            "id": 6993836698,
            "lat": 59.9415366,
            "lon": 30.3551097,
            "tags": {
                "amenity": "university",
                "name": "Санкт-Петербургский межрегиональный ресурсный центр"
            }
        },
        {
            "id": 7918294027,
            "lat": 59.9451791,
            "lon": 30.2987459,
            "tags": {
                "addr:housenumber": "6",
                "addr:street": "набережная Макарова",
                "amenity": "university",
                "name": "Факультет психологии СПбГУ",
                "website": "https://psy.spbu.ru/"
            }
        },
        {
            "id": 8206846085,
            "lat": 59.9203721,
            "lon": 30.3510932,
            "tags": {
                "amenity": "university",
                "name": "Международный институт экономики и права",
                "website": "https://miep.ru/region/6538/"
            }
        },
        {
            "id": 8688478886,
            "lat": 59.94593,
            "lon": 30.2790828,
            "tags": {
                "amenity": "university",
                "name": "Университет МВД"
            }
        },
        {
            "id": 8792579144,
            "lat": 59.9388922,
            "lon": 30.2763821,
            "tags": {
                "amenity": "university",
                "name": "Санкт-Петербургская академия Следственного комитета"
            }
        },
        {
            "id": 8812270850,
            "lat": 59.9385453,
            "lon": 30.2707173,
            "tags": {
                "amenity": "university",
                "name": "Факультет математики СПГУ"
            }
        },
        {
            "id": 8919840051,
            "lat": 59.9866013,
            "lon": 30.2892545,
            "tags": {
                "addr:housenumber": "6",
                "addr:street": "Сестрорецкая улица",
                "amenity": "university",
                "name": "НОИР",
                "website": "https://noironline.ru/"
            }
        },
        {
            "id": 9721237764,
            "lat": 59.9447694,
            "lon": 30.2890678,
            "tags": {
                "amenity": "university",
                "name": "Невский институт языка и культуры"
            }
        },
        {
            "id": 9812565046,
            "lat": 60.0456273,
            "lon": 30.3675619,
            "tags": {
                "amenity": "university",
                "name": "Учебно-клинический комплекс #2"
            }
        },
        {
            "id": 22780313,
            "center": {
                "lat": 60.0097692,
                "lon": 30.3744031
            },
            "tags": {
                "addr:housenumber": "3",
                "addr:street": "Тихорецкий проспект",
                "amenity": "university"
            }
        },
        {
            "id": 23041825,
            "center": {
                "lat": 59.9994602,
                "lon": 30.3746966
            },
            "tags": {
                "addr:housenumber": "11 к1",
                "addr:street": "улица Хлопина",
                "amenity": "university",
                "name": "5-й учебный корпус"
            }
        },
        {
            "id": 23566438,
            "center": {
                "lat": 59.8879192,
                "lon": 30.3648218
            },
            "tags": {
                "addr:housenumber": "22",
                "addr:street": "Бухарестская улица",
                "amenity": "university",
                "name": "Государственный университет кино и телевидения"
            }
        },
        {
            "id": 28566714,
            "center": {
                "lat": 59.9408667,
                "lon": 30.3028931
            },
            "tags": {
                "addr:housenumber": "5",
                "addr:street": "Университетская набережная",
                "amenity": "university",
                "name": "Санкт-Петербургский научный центр Российской академии наук"
            }
        },
        {
            "id": 28567597,
            "center": {
                "lat": 59.9423841,
                "lon": 30.2969472
            },
            "tags": {
                "addr:housenumber": "7-9-11 литАК",
                "addr:street": "Университетская набережная",
                "amenity": "university",
                "name": "Институт общей генетики им. Н.И. Вавилова (Санкт-Петербургский филиал)"
            }
        },
        {
            "id": 28713492,
            "center": {
                "lat": 59.9616191,
                "lon": 30.3453787
            },
            "tags": {
                "addr:housenumber": "11",
                "addr:street": "Большой Сампсониевский проспект",
                "amenity": "university",
                "name": "Санкт-Петербургский институт усовершенствования врачей-экспертов"
            }
        },
        {
            "id": 28751932,
            "center": {
                "lat": 59.8913754,
                "lon": 30.4369047
            },
            "tags": {
                "addr:housenumber": "3 литБ",
                "addr:street": "улица Крупской",
                "amenity": "university",
                "name": "Высшая школа экономики",
                "website": "https://www.hse.ru/"
            }
        },
        {
            "id": 30116128,
            "center": {
                "lat": 59.9659369,
                "lon": 30.2992747
            },
            "tags": {
                "addr:housenumber": "27",
                "addr:street": "Чкаловский проспект",
                "amenity": "university",
                "name": "Санкт-Петербургский государственный инженерно-экономический университет. Инcтитут повышения квалификации"
            }
        },
        {
            "id": 30325379,
            "center": {
                "lat": 59.9537389,
                "lon": 30.3195134
            },
            "tags": {
                "addr:housenumber": "5 литА",
                "amenity": "university",
                "name": "Северо-Западный филиал Российской академии правосудия"
            }
        },
        {
            "id": 32973991,
            "center": {
                "lat": 59.8811556,
                "lon": 30.4235042
            },
            "tags": {
                "addr:housenumber": "55 к2",
                "addr:street": "улица Седова",
                "amenity": "university",
                "name": "Государственный университет - Высшая школа экономики"
            }
        },
        {
            "id": 32973992,
            "center": {
                "lat": 59.8810064,
                "lon": 30.4250149
            },
            "tags": {
                "addr:housenumber": "55 к1",
                "addr:street": "улица Седова",
                "amenity": "university",
                "name": "СПб Государственный университет сервиса и экономики (СПбГУСЭ)"
            }
        },
        {
            "id": 33378907,
            "center": {
                "lat": 59.9105349,
                "lon": 30.2557869
            },
            "tags": {
                "addr:housenumber": "6",
                "addr:street": "Межевой канал",
                "amenity": "university",
                "name": "Факультет навигации и связи"
            }
        },
        {
            "id": 33855853,
            "center": {
                "lat": 59.8442531,
                "lon": 30.1383961
            },
            "tags": {
                "addr:housenumber": "1 литВ",
                "addr:street": "улица Лётчика Пилютова",
                "amenity": "university"
            }
        },
        {
            "id": 33855858,
            "center": {
                "lat": 59.8444839,
                "lon": 30.1382627
            },
            "tags": {
                "addr:housenumber": "1",
                "addr:street": "улица Лётчика Пилютова",
                "amenity": "university",
                "name": "Санкт-Петербургский военный ордена Жукова институт войск национальной гвардии Российской Федерации",
                "website": "https://spvi.rosguard.gov.ru"
            }
        },
        {
            "id": 35133560,
            "center": {
                "lat": 59.9539426,
                "lon": 30.2989683
            },
            "tags": {
                "addr:housenumber": "15-17",
                "addr:street": "Съезжинская улица",
                "amenity": "university",
                "name": "Финансовый университет",
                "website": "http://www.fa.ru/"
            }
        },
        {
            "id": 35135140,
            "center": {
                "lat": 59.946745,
                "lon": 30.3670506
            },
            "tags": {
                "amenity": "university",
                "name": "Экономический факультет Санкт-Петербургского государственного университета",
                "website": "http://www.econ.spbu.ru/"
            }
        },
        {
            "id": 35158629,
            "center": {
                "lat": 60.0025589,
                "lon": 30.3738843
            },
            "tags": {
                "amenity": "university",
                "name": "Санкт-Петербургский Академический университет"
            }
        },
        {
            "id": 37437367,
            "center": {
                "lat": 59.9583023,
                "lon": 30.2862415
            },
            "tags": {
                "addr:housenumber": "19А",
                "addr:street": "улица Красного Курсанта",
                "amenity": "university"
            }
        },
        {
            "id": 42072608,
            "center": {
                "lat": 59.8654672,
                "lon": 30.4187097
            },
            "tags": {
                "addr:housenumber": "52",
                "addr:street": "Софийская улица",
                "amenity": "university",
                "name": "Санкт-Петербургский филиал РТА имени В.Б. Бобкова",
                "website": "http://www.spbrca.ru/"
            }
        },
        {
            "id": 45743451,
            "center": {
                "lat": 59.9317246,
                "lon": 30.4009395
            },
            "tags": {
                "addr:housenumber": "55",
                "addr:street": "Малоохтинский проспект",
                "amenity": "university",
                "name": "РГПУ им. А.И. Герцена Институт физической культуры и спорта"
            }
        },
        {
            "id": 45965978,
            "center": {
                "lat": 59.9343042,
                "lon": 30.262493
            },
            "tags": {
                "addr:housenumber": "7",
                "addr:street": "22-я линия В.О.",
                "amenity": "university",
                "name": "Юридический факультет СПбГУ",
                "website": "http://law.spbu.ru/"
            }
        },
        {
            "id": 47005440,
            "center": {
                "lat": 59.8722917,
                "lon": 29.9172895
            },
            "tags": {
                "addr:housenumber": "33 литЖ",
                "addr:street": "улица Аврова",
                "amenity": "university",
                "name": "Факультет по охране общественного порядка Санкт - Петербургского университета МВД России"
            }
        },
        {
            "id": 47660324,
            "center": {
                "lat": 59.874842,
                "lon": 30.3298825
            },
            "tags": {
                "addr:housenumber": "9",
                "addr:street": "улица Севастьянова",
                "amenity": "university",
                "name": "Институт озероведения Российской Академии Наук"
            }
        },
        {
            "id": 50224297,
            "center": {
                "lat": 59.8915403,
                "lon": 30.317865
            },
            "tags": {
                "addr:housenumber": "103 литА",
                "addr:street": "Московский проспект",
                "amenity": "university",
                "name": "ИНЖЭКОН"
            }
        },
        {
            "id": 50436424,
            "center": {
                "lat": 59.9654155,
                "lon": 30.2989464
            },
            "tags": {
                "addr:housenumber": "25А",
                "addr:street": "Чкаловский проспект",
                "amenity": "university",
                "name": "Ленинградский областной институт развития образования",
                "website": "http://www.loiro.ru/"
            }
        },
        {
            "id": 50585529,
            "center": {
                "lat": 59.9013472,
                "lon": 30.2775035
            },
            "tags": {
                "addr:housenumber": "4",
                "addr:street": "улица Ивана Черных",
                "amenity": "university",
                "name": "СПБВШТЭ",
                "website": "http://gturp.spb.ru"
            }
        },
        {
            "id": 50597821,
            "center": {
                "lat": 59.9079012,
                "lon": 30.2638349
            },
            "tags": {
                "addr:housenumber": "4",
                "addr:street": "Лифляндская улица",
                "amenity": "university",
                "name": "Санкт-Петербургский институт искусств и реставрации",
                "website": "http://www.spbiir.ru/"
            }
        },
        {
            "id": 51050680,
            "center": {
                "lat": 59.9045072,
                "lon": 30.272248
            },
            "tags": {
                "addr:housenumber": "13 литБ",
                "addr:street": "Нарвский проспект",
                "amenity": "university",
                "name": "Санкт-Петербургский христианский университет",
                "website": "http://spbcu.ru/"
            }
        },
        {
            "id": 51105736,
            "center": {
                "lat": 59.9575038,
                "lon": 30.3268279
            },
            "tags": {
                "addr:housenumber": "26",
                "addr:street": "Малая Посадская улица",
                "amenity": "university",
                "name": "Российский государственный педагогический университет имени Герцена",
                "website": "https://www.herzen.spb.ru/"
            }
        },
        {
            "id": 52089822,
            "center": {
                "lat": 59.8795771,
                "lon": 29.8981273
            },
            "tags": {
                "addr:housenumber": "15",
                "addr:street": "Разводная улица",
                "amenity": "university",
                "name": "Военно-Морской институт радиоэлектроники имени Александра Степановича Попова",
                "website": "http://www.spbvmire.ru/"
            }
        },
        {
            "id": 52153137,
            "center": {
                "lat": 59.9350742,
                "lon": 30.3176128
            },
            "tags": {
                "amenity": "university",
                "name": "Санкт-Петербургский государственный университет телекоммуникаций имени профессора М. А. Бонч-Бруевича",
                "website": "https://www.sut.ru/"
            }
        },
        {
            "id": 53647970,
            "center": {
                "lat": 59.9159937,
                "lon": 30.3553986
            },
            "tags": {
                "addr:housenumber": "2",
                "addr:street": "улица Черняховского",
                "amenity": "university",
                "name": "ФГНУ Институт культурологии образования"
            }
        },
        {
            "id": 58078901,
            "center": {
                "lat": 59.9635974,
                "lon": 30.2918951
            },
            "tags": {
                "addr:housenumber": "7",
                "addr:street": "Петрозаводская улица",
                "amenity": "university",
                "name": "Санкт-Петербургский институт истории",
                "website": "http://www.spbiiran.ru/"
            }
        },
        {
            "id": 60136763,
            "center": {
                "lat": 59.9719875,
                "lon": 30.3828819
            },
            "tags": {
                "addr:housenumber": "59 литЩ",
                "addr:street": "Полюстровский проспект",
                "amenity": "university",
                "name": "Смольный институт РАО",
                "website": "http://www.smun.spb.ru/"
            }
        },
        {
            "id": 62288659,
            "center": {
                "lat": 59.8749731,
                "lon": 30.317418
            },
            "tags": {
                "amenity": "university",
                "name": "Санкт-Петербургский университет государственной противопожарной службы МЧС России"
            }
        },
        {
            "id": 64263669,
            "center": {
                "lat": 59.7203104,
                "lon": 30.4240395
            },
            "tags": {
                "addr:housenumber": "50/30",
                "addr:street": "Октябрьский бульвар",
                "amenity": "university",
                "name": "ПЦ \"Западсельэнергопроект\""
            }
        },
        {
            "id": 67522435,
            "center": {
                "lat": 59.9267348,
                "lon": 30.3034207
            },
            "tags": {
                "addr:housenumber": "1",
                "addr:street": "Средняя Подьяческая улица",
                "amenity": "university",
                "name": "Гуманитарный центр института внешнеэкономических связей, экономики и права"
            }
        },
        {
            "id": 73856568,
            "center": {
                "lat": 59.7303605,
                "lon": 30.3876256
            },
            "tags": {
                "amenity": "university",
                "name": "Санкт-Петербургский государственный аграрный университет",
                "website": "http://spbgau.ru"
            }
        },
        {
            "id": 74142258,
            "center": {
                "lat": 60.0121846,
                "lon": 30.375402
            },
            "tags": {
                "amenity": "university",
                "name": "Военная академия связи имени С. М. Будённого",
                "website": "http://www.vas-spb.ru/"
            }
        },
        {
            "id": 74165042,
            "center": {
                "lat": 60.0001246,
                "lon": 30.3830794
            },
            "tags": {
                "amenity": "university",
                "name": "НИИ Агрофизики"
            }
        },
        {
            "id": 81102666,
            "center": {
                "lat": 59.8751406,
                "lon": 29.8400471
            },
            "tags": {
                "addr:housenumber": "17",
                "addr:street": "Ботаническая улица",
                "amenity": "university",
                "name": "НИИ генетики и микробиологии"
            }
        },
        {
            "id": 82088516,
            "center": {
                "lat": 59.9230036,
                "lon": 30.3142436
            },
            "tags": {
                "amenity": "university",
                "name": "Петербургский государственный университет путей сообщения",
                "website": "https://www.pgups.ru/"
            }
        },
        {
            "id": 87599417,
            "center": {
                "lat": 59.9250617,
                "lon": 30.3350983
            },
            "tags": {
                "amenity": "university",
                "name": "Высшая школа печати и медиатехнологий"
            }
        },
        {
            "id": 89189897,
            "center": {
                "lat": 59.9438921,
                "lon": 30.2601343
            },
            "tags": {
                "addr:housenumber": "54",
                "addr:street": "17-я линия В.О.",
                "amenity": "university",
                "name": "Институт сетевых технологий"
            }
        },
        {
            "id": 91373758,
            "center": {
                "lat": 59.9151361,
                "lon": 30.3154076
            },
            "tags": {
                "amenity": "university",
                "name": "Санкт-Петербургский государственный архитектурно-строительный университет",
                "website": "http://spbgasu.ru/"
            }
        },
        {
            "id": 94125819,
            "center": {
                "lat": 59.9845293,
                "lon": 30.3040089
            },
            "tags": {
                "amenity": "university",
                "name": "Военно-морская академия имени адмирала флота Советского Союза Кузнецова Николая Герасимовича",
                "website": "https://vma.mil.ru/"
            }
        },
        {
            "id": 94729408,
            "center": {
                "lat": 59.9106065,
                "lon": 30.2951589
            },
            "tags": {
                "amenity": "university",
                "name": "Санкт-Петербургский военно-морской институт"
            }
        },
        {
            "id": 95807735,
            "center": {
                "lat": 59.9140287,
                "lon": 30.2982916
            },
            "tags": {
                "addr:housenumber": "44",
                "addr:street": "Лермонтовский проспект",
                "amenity": "university",
                "name": "Санкт-Петербургский университет технологий управления и экономики",
                "website": "https://www.spbume.ru/"
            }
        },
        {
            "id": 96687349,
            "center": {
                "lat": 59.9112055,
                "lon": 30.3161125
            },
            "tags": {
                "amenity": "university",
                "name": "Санкт-Петербургский государственный экономический университет",
                "website": "https://unecon.ru/"
            }
        },
        {
            "id": 96841944,
            "center": {
                "lat": 59.9398798,
                "lon": 30.2697323
            },
            "tags": {
                "amenity": "university",
                "name": "Санкт-Петербургский Институт Информатики и Автоматизации РАН"
            }
        },
        {
            "id": 104113511,
            "center": {
                "lat": 59.8634119,
                "lon": 29.9908525
            },
            "tags": {
                "addr:housenumber": "109 литИ",
                "addr:street": "Санкт-Петербургское шоссе",
                "amenity": "university",
                "name": "Главный учебный корпус"
            }
        },
        {
            "id": 104113523,
            "center": {
                "lat": 59.8631272,
                "lon": 29.9913808
            },
            "tags": {
                "addr:housenumber": "109 литЕ",
                "addr:street": "Санкт-Петербургское шоссе",
                "amenity": "university",
                "name": "Главный учебный корпус"
            }
        },
        {
            "id": 104113570,
            "center": {
                "lat": 59.863608,
                "lon": 29.9920058
            },
            "tags": {
                "addr:housenumber": "109 литД",
                "addr:street": "Санкт-Петербургское шоссе",
                "amenity": "university",
                "name": "Главный учебный корпус"
            }
        },
        {
            "id": 104113576,
            "center": {
                "lat": 59.8640165,
                "lon": 29.9912049
            },
            "tags": {
                "addr:housenumber": "109 литЗ",
                "addr:street": "Санкт-Петербургское шоссе",
                "amenity": "university",
                "name": "Главный учебный корпус"
            }
        },
        {
            "id": 104113592,
            "center": {
                "lat": 59.8636866,
                "lon": 29.9902989
            },
            "tags": {
                "addr:housenumber": "109 литЖ",
                "addr:street": "Санкт-Петербургское шоссе",
                "amenity": "university",
                "name": "Главный учебный корпус"
            }
        },
        {
            "id": 104287868,
            "center": {
                "lat": 59.94268,
                "lon": 30.2886637
            },
            "tags": {
                "amenity": "university",
                "name": "СПБГУ, Факультет Журналистики"
            }
        },
        {
            "id": 104764383,
            "center": {
                "lat": 60.0110827,
                "lon": 30.3731992
            },
            "tags": {
                "addr:housenumber": "3",
                "addr:street": "Тихорецкий проспект",
                "amenity": "university"
            }
        },
        {
            "id": 107544360,
            "center": {
                "lat": 59.942712,
                "lon": 30.2968892
            },
            "tags": {
                "addr:housenumber": "4 литМ",
                "addr:street": "Биржевая линия",
                "amenity": "university",
                "name": "Здание ИТМО"
            }
        },
        {
            "id": 107544368,
            "center": {
                "lat": 59.94404,
                "lon": 30.2951733
            },
            "tags": {
                "amenity": "university",
                "name": "ИТМО"
            }
        },
        {
            "id": 108132169,
            "center": {
                "lat": 59.9423833,
                "lon": 30.2744484
            },
            "tags": {
                "addr:housenumber": "41",
                "addr:street": "Средний проспект В.О.",
                "amenity": "university",
                "name": "Институт наук о Земле СПбГУ",
                "website": "http://www.earth.spbu.ru"
            }
        },
        {
            "id": 114538211,
            "center": {
                "lat": 59.9351906,
                "lon": 30.2623469
            },
            "tags": {
                "amenity": "university",
                "name": "Государственный университет морского и речного флота им. адмирала С.О. Макарова"
            }
        },
        {
            "id": 121031933,
            "center": {
                "lat": 59.8544884,
                "lon": 30.0767611
            },
            "tags": {
                "amenity": "university",
                "name": "Государственный университет морского и речного флота имени адмирала С.О. Макарова"
            }
        },
        {
            "id": 126521882,
            "center": {
                "lat": 60.0087608,
                "lon": 30.349303
            },
            "tags": {
                "addr:housenumber": "44",
                "addr:street": "проспект Тореза",
                "amenity": "university",
                "name": "Институт эволюционной физиологии и биохимии им. Сеченова",
                "website": "http://www.iephb.ru"
            }
        },
        {
            "id": 129701662,
            "center": {
                "lat": 59.8364981,
                "lon": 30.2555833
            },
            "tags": {
                "amenity": "university",
                "name": "Институт экономики и финансов",
                "website": "http://www.ief-spb.ru/"
            }
        },
        {
            "id": 132423275,
            "center": {
                "lat": 59.9117721,
                "lon": 30.2916983
            },
            "tags": {
                "amenity": "university",
                "name": "Автомобильно-дорожный факультет СПбГАСУ"
            }
        },
        {
            "id": 132665548,
            "center": {
                "lat": 60.0005969,
                "lon": 30.3680449
            },
            "tags": {
                "addr:housenumber": "3 к3",
                "addr:street": "улица Хлопина",
                "amenity": "university",
                "name": "СПбГПУ Кафедра подъемно-транспортных и строительных машин - Лаборатория технической диагностики"
            }
        },
        {
            "id": 137045682,
            "center": {
                "lat": 59.9486903,
                "lon": 30.2594059
            },
            "tags": {
                "addr:housenumber": "19-21",
                "addr:street": "набережная реки Смоленки",
                "amenity": "university",
                "name": "Государственный институт психологии и социальной работы",
                "website": "https://psysocwork.ru/"
            }
        },
        {
            "id": 140287315,
            "center": {
                "lat": 59.9751955,
                "lon": 30.3426288
            },
            "tags": {
                "addr:housenumber": "63",
                "addr:street": "Большой Сампсониевский проспект",
                "amenity": "university",
                "name": "Военный институт физической культуры",
                "website": "http://vifk-spb.narod.ru"
            }
        },
        {
            "id": 141193283,
            "center": {
                "lat": 59.9106833,
                "lon": 30.3059766
            },
            "tags": {
                "amenity": "university",
                "name": "Колледж физической культуры и спорта, экономики и технологии"
            }
        },
        {
            "id": 141566457,
            "center": {
                "lat": 59.9259349,
                "lon": 30.4020861
            },
            "tags": {
                "addr:housenumber": "1/82",
                "addr:street": "Заневский проспект",
                "amenity": "university",
                "name": "Медицинская академия послевузовского образования"
            }
        },
        {
            "id": 144008464,
            "center": {
                "lat": 59.8049837,
                "lon": 30.3856658
            },
            "tags": {
                "addr:housenumber": "12",
                "addr:street": "Пушкинская улица",
                "amenity": "university",
                "name": "Академия менеджмента и агробизнеса Нечерноземной зоны РФ",
                "website": "http://ama.spbgau.ru/"
            }
        },
        {
            "id": 144971625,
            "center": {
                "lat": 59.9418539,
                "lon": 30.2962931
            },
            "tags": {
                "amenity": "university",
                "name": "Оранжерея СПБГУ"
            }
        },
        {
            "id": 161598583,
            "center": {
                "lat": 59.9093327,
                "lon": 30.3425554
            },
            "tags": {
                "addr:housenumber": "79",
                "addr:street": "Воронежская улица",
                "amenity": "university",
                "name": "Государственная Полярная Академия"
            }
        },
        {
            "id": 161598605,
            "center": {
                "lat": 59.9103395,
                "lon": 30.3420348
            },
            "tags": {
                "addr:housenumber": "3",
                "addr:street": "Прилукская улица",
                "amenity": "university",
                "name": "ИНЖЭКОН Учебный корпус №2"
            }
        },
        {
            "id": 161616792,
            "center": {
                "lat": 59.819704,
                "lon": 30.2885154
            },
            "tags": {
                "amenity": "university",
                "name": "Санкт-Петербургский государственный университет гражданской авиации"
            }
        },
        {
            "id": 162541916,
            "center": {
                "lat": 59.7397139,
                "lon": 30.3874971
            },
            "tags": {
                "amenity": "university",
                "name": "Ленинградский государственный университет имени Александра Сергеевича Пушкина"
            }
        },
        {
            "id": 190863691,
            "center": {
                "lat": 59.9347166,
                "lon": 30.253167
            },
            "tags": {
                "addr:housenumber": "86",
                "addr:street": "Средний проспект В.О.",
                "amenity": "university",
                "name": "Всероссийский алюминиево-магниевый институт",
                "website": "https://vami.ru/"
            }
        },
        {
            "id": 191235569,
            "center": {
                "lat": 59.9185112,
                "lon": 30.3201387
            },
            "tags": {
                "amenity": "university",
                "name": "Санкт-Петербургский государственный технологический институт",
                "website": "http://technolog.edu.ru/"
            }
        },
        {
            "id": 193002361,
            "center": {
                "lat": 59.9444852,
                "lon": 30.4211285
            },
            "tags": {
                "addr:housenumber": "3",
                "addr:street": "проспект Металлистов",
                "amenity": "university",
                "name": "РГГМУ, 2-й корпус"
            }
        },
        {
            "id": 193598873,
            "center": {
                "lat": 59.7271622,
                "lon": 30.4323152
            },
            "tags": {
                "amenity": "university",
                "name": "Северо-Западный научно-методический центр Россельхозакадемии"
            }
        },
        {
            "id": 222839013,
            "center": {
                "lat": 59.9539946,
                "lon": 30.4414261
            },
            "tags": {
                "amenity": "university",
                "name": "Институт переподготовки и повышения квалификации сотрудников ФСБ России"
            }
        },
        {
            "id": 230326041,
            "center": {
                "lat": 59.9895501,
                "lon": 30.3053441
            },
            "tags": {
                "amenity": "university",
                "name": "СПбГУКИ. Центр Режиссерского и продюсерского мастерства"
            }
        },
        {
            "id": 231483517,
            "center": {
                "lat": 59.9334946,
                "lon": 30.3196995
            },
            "tags": {
                "amenity": "university",
                "name": "Российский государственный педагогический университет имени А. И. Герцена",
                "website": "https://www.herzen.spb.ru/"
            }
        },
        {
            "id": 278145104,
            "center": {
                "lat": 59.8557056,
                "lon": 30.3309798
            },
            "tags": {
                "amenity": "university",
                "name": "Юридический факультет ГУАП"
            }
        },
        {
            "id": 303687856,
            "center": {
                "lat": 59.8531594,
                "lon": 30.0885692
            },
            "tags": {
                "amenity": "university",
                "name": "Санкт-Петербургский университет МВД",
                "website": "http://www.univermvd.ru/"
            }
        },
        {
            "id": 308858648,
            "center": {
                "lat": 59.8629959,
                "lon": 29.9900964
            },
            "tags": {
                "amenity": "university",
                "name": "Конференц-зал"
            }
        },
        {
            "id": 415540917,
            "center": {
                "lat": 59.8995395,
                "lon": 30.4277197
            },
            "tags": {
                "amenity": "university",
                "name": "Санкт-Петербургский государственный институт культуры, учебный корпус № 5"
            }
        },
        {
            "id": 432935658,
            "center": {
                "lat": 59.9043272,
                "lon": 30.3407524
            },
            "tags": {
                "amenity": "university",
                "name": "РГПУ им. Герцена, Факультет физкультуры"
            }
        },
        {
            "id": 442165500,
            "center": {
                "lat": 60.0001451,
                "lon": 30.3675684
            },
            "tags": {
                "amenity": "university",
                "name": "СПбГПУ 6-й учебный корпус"
            }
        },
        {
            "id": 442165501,
            "center": {
                "lat": 60.0005879,
                "lon": 30.3695904
            },
            "tags": {
                "amenity": "university",
                "name": "СПбГПУ 10-й учебный корпус"
            }
        },
        {
            "id": 442325984,
            "center": {
                "lat": 60.0008044,
                "lon": 30.3668219
            },
            "tags": {
                "amenity": "university",
                "name": "СПБГПУ 9-й учебный корпус"
            }
        },
        {
            "id": 451573399,
            "center": {
                "lat": 59.8650783,
                "lon": 29.9873201
            },
            "tags": {
                "amenity": "university",
                "name": "Здание Студенческого клуба"
            }
        },
        {
            "id": 452963470,
            "center": {
                "lat": 59.9229372,
                "lon": 30.2902966
            },
            "tags": {
                "amenity": "university",
                "name": "Высшая школа экономики",
                "website": "https://spb.hse.ru/"
            }
        },
        {
            "id": 461520021,
            "center": {
                "lat": 59.8940275,
                "lon": 30.325417
            },
            "tags": {
                "addr:housenumber": "5",
                "addr:street": "Черниговская улица",
                "amenity": "university",
                "name": "Санкт-Петербургская государственная академия ветеринарной медицины",
                "website": "https://www.spbgavm.ru/"
            }
        },
        {
            "id": 463244229,
            "center": {
                "lat": 59.9140183,
                "lon": 30.2891621
            },
            "tags": {
                "amenity": "university",
                "name": "Российский государственный гидрометеорологический университет"
            }
        },
        {
            "id": 483477854,
            "center": {
                "lat": 59.9069937,
                "lon": 30.2923642
            },
            "tags": {
                "amenity": "university",
                "name": "Парк художественно-технологических проектов СПбГУПТД",
                "website": "http://sutd.ru/projects/park_htp/"
            }
        },
        {
            "id": 483710409,
            "center": {
                "lat": 59.929963,
                "lon": 30.2852194
            },
            "tags": {
                "amenity": "university",
                "name": "Факультет свободных искусств и наук СПбГУ",
                "website": "http://artesliberales.spbu.ru/"
            }
        },
        {
            "id": 486714084,
            "center": {
                "lat": 59.9296544,
                "lon": 30.3155783
            },
            "tags": {
                "amenity": "university",
                "name": "Университет ИТМО",
                "website": "https://itmo.ru/"
            }
        },
        {
            "id": 488224428,
            "center": {
                "lat": 59.9281638,
                "lon": 30.2979087
            },
            "tags": {
                "amenity": "university",
                "name": "Санкт-Петербургская академия Следственного комитета Российской Федерации",
                "website": "http://skspba.ru/"
            }
        },
        {
            "id": 490428553,
            "center": {
                "lat": 59.9112901,
                "lon": 30.3158115
            },
            "tags": {
                "amenity": "university",
                "name": "Учебный корпус Технологического института",
                "website": "http://technolog.edu.ru/"
            }
        },
        {
            "id": 492971132,
            "center": {
                "lat": 59.9312544,
                "lon": 30.3254064
            },
            "tags": {
                "amenity": "university",
                "name": "Санкт-Петербургский государственный экономический университет",
                "website": "https://unecon.ru/"
            }
        },
        {
            "id": 500000956,
            "center": {
                "lat": 59.9147304,
                "lon": 30.3611187
            },
            "tags": {
                "amenity": "university",
                "name": "Северо-Западный институт управления"
            }
        },
        {
            "id": 539043629,
            "center": {
                "lat": 59.9345273,
                "lon": 30.3165839
            },
            "tags": {
                "amenity": "university",
                "name": "Санкт-Петербургский государственный университет промышленных технологий и дизайна",
                "website": "https://sutd.ru/"
            }
        },
        {
            "id": 542394097,
            "center": {
                "lat": 59.9171456,
                "lon": 30.2804575
            },
            "tags": {
                "amenity": "university",
                "name": "Санкт-Петербургский университет МВД России",
                "website": "https://университет.мвд.рф/"
            }
        },
        {
            "id": 550092151,
            "center": {
                "lat": 59.9462936,
                "lon": 30.3456303
            },
            "tags": {
                "amenity": "university",
                "name": "Факультет технологического менеджмента и инноваций ИТМО",
                "website": "http://ftmi.ifmo.ru/"
            }
        },
        {
            "id": 553673728,
            "center": {
                "lat": 59.9271309,
                "lon": 30.351876
            },
            "tags": {
                "amenity": "university",
                "name": "Санкт-Петербургский государственный экономический университет"
            }
        },
        {
            "id": 556070754,
            "center": {
                "lat": 59.9170335,
                "lon": 30.3558119
            },
            "tags": {
                "amenity": "university",
                "name": "Северо-Западный институт управления, Факультет социальных технологий",
                "website": "https://sziu.ranepa.ru/fst"
            }
        },
        {
            "id": 567561786,
            "center": {
                "lat": 59.9380271,
                "lon": 30.3500145
            },
            "tags": {
                "amenity": "university",
                "name": "Санкт-Петербургский юридический институт Академии Генеральной прокуратуры Российской Федерации",
                "website": "http://www.procuror.spb.ru/"
            }
        },
        {
            "id": 588128184,
            "center": {
                "lat": 59.9410558,
                "lon": 30.329485
            },
            "tags": {
                "amenity": "university",
                "name": "Высшая школа народных искусств"
            }
        },
        {
            "id": 588888110,
            "center": {
                "lat": 59.9301973,
                "lon": 30.3361547
            },
            "tags": {
                "amenity": "university",
                "name": "Академия русского балета имени А. Я. Вагановой"
            }
        },
        {
            "id": 605372866,
            "center": {
                "lat": 59.9530499,
                "lon": 30.2479329
            },
            "tags": {
                "addr:housenumber": "16",
                "addr:street": "переулок Декабристов",
                "amenity": "university",
                "name": "Институт наук о Земле СПбГУ",
                "website": "http://www.earth.spbu.ru"
            }
        },
        {
            "id": 667394554,
            "center": {
                "lat": 59.9483101,
                "lon": 30.3640544
            },
            "tags": {
                "amenity": "university",
                "name": "Военный институт (инженерно-технический) Военной академии материально-технического обеспечения"
            }
        },
        {
            "id": 694995027,
            "center": {
                "lat": 59.9435724,
                "lon": 30.3644574
            },
            "tags": {
                "addr:housenumber": "39",
                "addr:street": "улица Радищева",
                "amenity": "university",
                "name": "СПбГУ, Экономический факультет"
            }
        },
        {
            "id": 699107301,
            "center": {
                "lat": 59.9516491,
                "lon": 30.244233
            },
            "tags": {
                "amenity": "university",
                "name": "РГПУ им. А.И. Герцена, Институт музыки, театра и хореографии"
            }
        },
        {
            "id": 735169905,
            "center": {
                "lat": 59.8979213,
                "lon": 30.2640217
            },
            "tags": {
                "amenity": "university",
                "name": "Высшая школа экономики"
            }
        },
        {
            "id": 747160235,
            "center": {
                "lat": 59.9257589,
                "lon": 30.254262
            },
            "tags": {
                "amenity": "university",
                "name": "Государственный университет морского и речного флота им. адмирала С.О. Макарова",
                "website": "https://gumrf.ru/"
            }
        },
        {
            "id": 809932634,
            "center": {
                "lat": 59.9458092,
                "lon": 30.2552551
            },
            "tags": {
                "amenity": "university",
                "name": "Колледж физкультуры и спорта, экономики и технологии СПбГУ",
                "website": "https://sc.spbu.ru/"
            }
        },
        {
            "id": 814751587,
            "center": {
                "lat": 59.9311223,
                "lon": 30.2383321
            },
            "tags": {
                "amenity": "university"
            }
        },
        {
            "id": 815064880,
            "center": {
                "lat": 59.9359487,
                "lon": 30.2582295
            },
            "tags": {
                "amenity": "university",
                "name": "Горный университет. УЦ №2"
            }
        },
        {
            "id": 815067290,
            "center": {
                "lat": 59.930186,
                "lon": 30.2679655
            },
            "tags": {
                "amenity": "university",
                "name": "Горный университет. УЦ №1"
            }
        },
        {
            "id": 816964628,
            "center": {
                "lat": 59.9462977,
                "lon": 30.2836553
            },
            "tags": {
                "amenity": "university",
                "name": "Филологический факультет РГПУ им. А. И. Герцена"
            }
        },
        {
            "id": 818073729,
            "center": {
                "lat": 59.9359803,
                "lon": 30.2784524
            },
            "tags": {
                "amenity": "university",
                "name": "Санкт-Петербургский военно-морской институт \"Морской корпус Петра Великого\""
            }
        },
        {
            "id": 818586629,
            "center": {
                "lat": 59.8636494,
                "lon": 29.9881663
            },
            "tags": {
                "amenity": "university",
                "name": "Высшая школа менеджмента СПбГУ. Кампус \"Михайловская дача\"",
                "website": "https://gsom.spbu.ru/"
            }
        },
        {
            "id": 818895890,
            "center": {
                "lat": 59.9406286,
                "lon": 30.2759455
            },
            "tags": {
                "amenity": "university",
                "name": "Российская правовая академия министерства юстиции РФ",
                "website": "https://spb.rpa-mu.ru/"
            }
        },
        {
            "id": 819603151,
            "center": {
                "lat": 59.9445795,
                "lon": 30.2948603
            },
            "tags": {
                "amenity": "university",
                "name": "Инновационно-технологический центр ИТМО"
            }
        },
        {
            "id": 819603152,
            "center": {
                "lat": 59.9449362,
                "lon": 30.2965918
            },
            "tags": {
                "amenity": "university",
                "name": "Военная академия материально-технического обеспечения имени А. В. Хрулёва"
            }
        },
        {
            "id": 883266944,
            "center": {
                "lat": 59.9189666,
                "lon": 30.3906474
            },
            "tags": {
                "amenity": "university",
                "name": "Санкт-Петербургская духовная академия, историческое здание",
                "website": "https://spbda.ru/"
            }
        },
        {
            "id": 883266946,
            "center": {
                "lat": 59.9178791,
                "lon": 30.3833347
            },
            "tags": {
                "amenity": "university",
                "name": "Санкт-Петербургская духовная академия",
                "website": "https://spbda.ru/"
            }
        },
        {
            "id": 1039921127,
            "center": {
                "lat": 59.9166909,
                "lon": 30.298891
            },
            "tags": {
                "amenity": "university",
                "name": "Информационно-методический Центр"
            }
        },
        {
            "id": 1057316705,
            "center": {
                "lat": 59.9420453,
                "lon": 30.2910324
            },
            "tags": {
                "amenity": "university",
                "name": "Университет ИТМО"
            }
        },
        {
            "id": 1058170863,
            "center": {
                "lat": 59.9453882,
                "lon": 30.291018
            },
            "tags": {
                "amenity": "university",
                "name": "Высшая школа менеджмента СПбГУ"
            }
        },
        {
            "id": 1099683411,
            "center": {
                "lat": 59.9142565,
                "lon": 30.3472996
            },
            "tags": {
                "amenity": "university",
                "name": "Санкт-Петербургский государственный институт психологии и социальной работы",
                "website": "https://psysocwork.ru/"
            }
        },
        {
            "id": 1211573,
            "center": {
                "lat": 59.8820896,
                "lon": 29.8225278
            },
            "tags": {
                "addr:housenumber": "3",
                "addr:street": "Ульяновская улица",
                "amenity": "university",
                "name": "Физический факультет СПбГУ"
            }
        },
        {
            "id": 1330123,
            "center": {
                "lat": 59.9984422,
                "lon": 30.3672217
            },
            "tags": {
                "amenity": "university",
                "name": "Санкт-Петербургский политехнический университет Петра Великого"
            }
        },
        {
            "id": 1343236,
            "center": {
                "lat": 59.9267595,
                "lon": 30.3380392
            },
            "tags": {
                "addr:housenumber": "9",
                "addr:street": "улица Ломоносова",
                "amenity": "university",
                "name": "Университет ИТМО"
            }
        },
        {
            "id": 1343489,
            "center": {
                "lat": 59.9815508,
                "lon": 30.3418937
            },
            "tags": {
                "addr:housenumber": "16",
                "addr:street": "Кантемировская улица",
                "amenity": "university",
                "name": "Санкт-Петербургский государственный педиатрический медицинский университет",
                "website": "http://www.gpma.ru"
            }
        },
        {
            "id": 1388990,
            "center": {
                "lat": 59.9858328,
                "lon": 30.3436924
            },
            "tags": {
                "amenity": "university",
                "name": "Санкт-Петербургский государственный инженерно-экономический университет",
                "website": "http://engec.ru"
            }
        },
        {
            "id": 1410676,
            "center": {
                "lat": 59.9191565,
                "lon": 30.3155051
            },
            "tags": {
                "amenity": "university",
                "name": "Санкт-Петербургское суворовское военное училище"
            }
        },
        {
            "id": 1411862,
            "center": {
                "lat": 59.9098051,
                "lon": 30.2498459
            },
            "tags": {
                "amenity": "university",
                "name": "Государственный университет морского и речного флота имени адмирала С. О. Макарова"
            }
        },
        {
            "id": 1413414,
            "center": {
                "lat": 59.9171549,
                "lon": 30.3129956
            },
            "tags": {
                "amenity": "university",
                "name": "Балтийский государственный технический университет «Военмех»",
                "website": "https://voenmeh.ru/"
            }
        },
        {
            "id": 1413513,
            "center": {
                "lat": 59.9456064,
                "lon": 30.3286314
            },
            "tags": {
                "addr:housenumber": "5",
                "addr:street": "Миллионная улица",
                "amenity": "university",
                "name": "Северо-Западный государственный заочный технический университет",
                "website": "http://nwpi.ru"
            }
        },
        {
            "id": 1530755,
            "center": {
                "lat": 59.9449362,
                "lon": 30.2965179
            },
            "tags": {
                "addr:housenumber": "8",
                "addr:street": "набережная Макарова",
                "amenity": "university",
                "name": "Военная академия материально-технического обеспечения имени А. В. Хрулёва"
            }
        },
        {
            "id": 1536055,
            "center": {
                "lat": 59.8797014,
                "lon": 29.8290072
            },
            "tags": {
                "amenity": "university",
                "name": "Математико-механический факультет СПбГУ",
                "website": "http://www.math.spbu.ru"
            }
        },
        {
            "id": 1536749,
            "center": {
                "lat": 59.8820896,
                "lon": 29.8310883
            },
            "tags": {
                "amenity": "university",
                "name": "факультет прикладной математики - процессов управления СПбГУ"
            }
        },
        {
            "id": 1536840,
            "center": {
                "lat": 59.9428501,
                "lon": 30.2731851
            },
            "tags": {
                "addr:housenumber": "31-35",
                "addr:street": "10-я линия В.О.",
                "amenity": "university",
                "name": "Институт наук о Земле СПБГУ"
            }
        },
        {
            "id": 1612061,
            "center": {
                "lat": 59.881806,
                "lon": 29.8260072
            },
            "tags": {
                "addr:housenumber": "1",
                "addr:street": "Ульяновская улица",
                "amenity": "university",
                "name": "НИИ Физики СПбГУ"
            }
        },
        {
            "id": 1612079,
            "center": {
                "lat": 59.8782158,
                "lon": 29.8358006
            },
            "tags": {
                "addr:housenumber": "26",
                "addr:street": "Университетский проспект",
                "amenity": "university",
                "name": "Химический факультет СПбГУ"
            }
        },
        {
            "id": 1634566,
            "center": {
                "lat": 59.8855614,
                "lon": 29.8207328
            },
            "tags": {
                "amenity": "university",
                "name": "Гидродинамическая и Аэродинамическая лаборатории СПбГУ"
            }
        },
        {
            "id": 1752457,
            "center": {
                "lat": 59.8847231,
                "lon": 29.8232739
            },
            "tags": {
                "addr:housenumber": "5",
                "addr:street": "Ульяновская улица",
                "amenity": "university",
                "name": "Российский центр лазерных исследований"
            }
        },
        {
            "id": 1915364,
            "center": {
                "lat": 59.9716118,
                "lon": 30.3204706
            },
            "tags": {
                "amenity": "university",
                "name": "Корпус №1"
            }
        },
        {
            "id": 1922679,
            "center": {
                "lat": 59.8799541,
                "lon": 29.8266659
            },
            "tags": {
                "addr:housenumber": "28А",
                "addr:street": "Ульяновская улица",
                "amenity": "university"
            }
        },
        {
            "id": 1922680,
            "center": {
                "lat": 59.880425,
                "lon": 29.8273034
            },
            "tags": {
                "addr:housenumber": "28А",
                "addr:street": "Ульяновская улица",
                "amenity": "university"
            }
        },
        {
            "id": 2051921,
            "center": {
                "lat": 59.9834259,
                "lon": 30.2645261
            },
            "tags": {
                "amenity": "university"
            }
        },
        {
            "id": 2070243,
            "center": {
                "lat": 60.0076014,
                "lon": 30.3668555
            },
            "tags": {
                "amenity": "university",
                "name": "Физико-технический институт имени А.Ф. Иоффе"
            }
        },
        {
            "id": 2095568,
            "center": {
                "lat": 59.9658672,
                "lon": 30.3322482
            },
            "tags": {
                "amenity": "university",
                "name": "Первый Санкт-Петербургский государственный медицинский университет имени академика Ивана Петровича Павлова",
                "website": "http://www.spb-gmu.ru/"
            }
        },
        {
            "id": 2133734,
            "center": {
                "lat": 59.9948458,
                "lon": 30.3565201
            },
            "tags": {
                "amenity": "university",
                "name": "Санкт-Петербургский торгово-экономический институт",
                "website": "https://imet.spbstu.ru/"
            }
        },
        {
            "id": 2185367,
            "center": {
                "lat": 59.7116072,
                "lon": 30.4291103
            },
            "tags": {
                "amenity": "university",
                "name": "Всероссийский институт генетических ресурсов растений им. Н.И. Вавилова"
            }
        },
        {
            "id": 2354237,
            "center": {
                "lat": 59.903862,
                "lon": 30.4068064
            },
            "tags": {
                "addr:housenumber": "1",
                "addr:street": "улица Бехтерева",
                "amenity": "university",
                "name": "Институт токсикологии ФМБА России"
            }
        },
        {
            "id": 2501883,
            "center": {
                "lat": 59.8812378,
                "lon": 29.8233386
            },
            "tags": {
                "addr:housenumber": "3",
                "addr:street": "Ульяновская улица",
                "amenity": "university",
                "name": "корпус Г"
            }
        },
        {
            "id": 2535427,
            "center": {
                "lat": 59.8659962,
                "lon": 30.4707274
            },
            "tags": {
                "addr:housenumber": "114",
                "addr:street": "проспект Обуховской Обороны",
                "amenity": "university",
                "name": "Санкт-Петербургская юридическая академия"
            }
        },
        {
            "id": 2802494,
            "center": {
                "lat": 59.8849586,
                "lon": 30.3791721
            },
            "tags": {
                "amenity": "university",
                "name": "Санкт-Петербургский университет МЧС России имени Е. Н. Зиничева"
            }
        },
        {
            "id": 3067535,
            "center": {
                "lat": 59.7106374,
                "lon": 30.4084722
            },
            "tags": {
                "addr:housenumber": "4",
                "addr:street": "улица Радищева",
                "amenity": "university",
                "name": "Учебный центр подготовки руководителей НИУ ВШЭ",
                "website": "https://kc.hse.ru"
            }
        },
        {
            "id": 3127702,
            "center": {
                "lat": 59.9404394,
                "lon": 30.374279
            },
            "tags": {
                "amenity": "university",
                "name": "Военная академия связи им. С. М. Будённого",
                "website": "http://vas.mil.ru/"
            }
        },
        {
            "id": 3127703,
            "center": {
                "lat": 59.9427924,
                "lon": 30.3732166
            },
            "tags": {
                "amenity": "university",
                "name": "Санкт-Петербургская Медицинская академия последипломного образования",
                "website": "http://szgmu.ru/"
            }
        },
        {
            "id": 3296531,
            "center": {
                "lat": 59.9216119,
                "lon": 30.3090604
            },
            "tags": {
                "amenity": "university",
                "name": "Санкт-Петербургский государственный университет промышленных технологий и дизайна",
                "website": "https://sutd.ru/"
            }
        },
        {
            "id": 4147985,
            "center": {
                "lat": 59.8818666,
                "lon": 29.825708
            },
            "tags": {
                "addr:housenumber": "1",
                "addr:street": "Ульяновская улица",
                "amenity": "university"
            }
        },
        {
            "id": 4166703,
            "center": {
                "lat": 59.9029649,
                "lon": 30.4907694
            },
            "tags": {
                "amenity": "university",
                "name": "Университет телекоммуникаций имени професора М. А. Бонч-Бруевича"
            }
        },
        {
            "id": 4501020,
            "center": {
                "lat": 59.9765596,
                "lon": 30.3130441
            },
            "tags": {
                "amenity": "university",
                "name": "Институт Мозга Человека",
                "website": "http://www.ihb.spb.ru/"
            }
        },
        {
            "id": 4501021,
            "center": {
                "lat": 59.9763121,
                "lon": 30.3115222
            },
            "tags": {
                "amenity": "university",
                "name": "Институт экспериментальной медицины",
                "website": "http://www.iemrams.spb.ru/"
            }
        },
        {
            "id": 5379812,
            "center": {
                "lat": 59.9582395,
                "lon": 30.3510753
            },
            "tags": {
                "amenity": "university",
                "name": "Военно-медицинская академия имени С. М. Кирова",
                "website": "https://www.vmeda.org/"
            }
        },
        {
            "id": 6177153,
            "center": {
                "lat": 59.9442691,
                "lon": 30.2729212
            },
            "tags": {
                "amenity": "university",
                "name": "Бизнес-школа ИМИСП",
                "website": "http://www.imisp.ru/"
            }
        },
        {
            "id": 6505075,
            "center": {
                "lat": 59.9401661,
                "lon": 30.4778677
            },
            "tags": {
                "amenity": "university",
                "name": "Институт физиологии имени И. П. Павлова РАН",
                "website": "http://www.infran.ru/"
            }
        },
        {
            "id": 6547078,
            "center": {
                "lat": 59.9513719,
                "lon": 30.3197892
            },
            "tags": {
                "amenity": "university",
                "name": "Санкт-Петербургская государственная химико-фармацевтическая академия",
                "website": "http://www.spcpa.ru/"
            }
        },
        {
            "id": 6581631,
            "center": {
                "lat": 59.8932008,
                "lon": 30.3126901
            },
            "tags": {
                "amenity": "university",
                "name": "Санкт-Петербургский государственный университет аэрокосмического приборостроения",
                "website": "http://guap.ru/"
            }
        },
        {
            "id": 6581705,
            "center": {
                "lat": 59.9512354,
                "lon": 30.3504201
            },
            "tags": {
                "amenity": "university",
                "name": "Михайловская военная артиллерийская академия",
                "website": "http://mvaa.mil.ru/"
            }
        },
        {
            "id": 6601724,
            "center": {
                "lat": 59.9412301,
                "lon": 30.2961022
            },
            "tags": {
                "amenity": "university",
                "name": "Санкт-Петербургский государственный университет",
                "website": "http://www.spbu.ru"
            }
        },
        {
            "id": 6807846,
            "center": {
                "lat": 59.9010174,
                "lon": 30.270438
            },
            "tags": {
                "addr:housenumber": "3",
                "addr:street": "Лоцманская улица",
                "amenity": "university",
                "name": "Санкт-Петербургский государственный морской технический университет",
                "website": "https://www.smtu.ru/"
            }
        },
        {
            "id": 7346240,
            "center": {
                "lat": 59.9406321,
                "lon": 30.3451643
            },
            "tags": {
                "amenity": "university",
                "name": "Российский государственный институт сценических искусств"
            }
        },
        {
            "id": 7464621,
            "center": {
                "lat": 59.7204522,
                "lon": 30.3983894
            },
            "tags": {
                "amenity": "university",
                "name": "Институт правоведения и предпринимательства",
                "website": "http://www.иппспб.рф/"
            }
        },
        {
            "id": 7595285,
            "center": {
                "lat": 59.9269008,
                "lon": 30.2972464
            },
            "tags": {
                "amenity": "university",
                "name": "Санкт–Петербургская государственная консерватория имени Н. А. Римского-Корсакова",
                "website": "http://www.conservatory.ru"
            }
        },
        {
            "id": 7614537,
            "center": {
                "lat": 59.9264959,
                "lon": 30.2900951
            },
            "tags": {
                "amenity": "university",
                "name": "Университет физической культуры, спорта и здоровья имени П. Ф. Лесгафта",
                "website": "http://www.lesgaft.spb.ru"
            }
        },
        {
            "id": 7626251,
            "center": {
                "lat": 59.9303124,
                "lon": 30.3243177
            },
            "tags": {
                "amenity": "university",
                "name": "Санкт-Петербургский государственный институт культуры"
            }
        },
        {
            "id": 7771749,
            "center": {
                "lat": 59.8793991,
                "lon": 30.3775391
            },
            "tags": {
                "amenity": "university",
                "name": "Санкт-Петербургский Гуманитарный университет профсоюзов",
                "website": "https://www.gup.ru/"
            }
        },
        {
            "id": 7905514,
            "center": {
                "lat": 59.9724952,
                "lon": 30.322638
            },
            "tags": {
                "amenity": "university",
                "name": "Санкт-Петербургский государственный электротехнический университет «ЛЭТИ» им. В. И. Ульянова (Ленина)",
                "website": "http://www.eltech.ru/"
            }
        },
        {
            "id": 8018663,
            "center": {
                "lat": 59.9445127,
                "lon": 30.3408788
            },
            "tags": {
                "amenity": "university",
                "name": "Санкт-Петербургская государственная художественно-промышленная академия имени А. Л. Штиглица"
            }
        },
        {
            "id": 8235643,
            "center": {
                "lat": 59.8866674,
                "lon": 29.8683648
            },
            "tags": {
                "addr:housenumber": "1",
                "addr:street": "Суворовская улица",
                "amenity": "university",
                "name": "Военно-транспортный университет железнодорожных войск",
                "website": "http://ens.mil.ru/education/higher/academy/more.htm?id=8711@morfOrgEduc"
            }
        },
        {
            "id": 8811473,
            "center": {
                "lat": 59.7245092,
                "lon": 30.3973437
            },
            "tags": {
                "amenity": "university",
                "name": "Санкт-Петербургский государственный аграрный университет"
            }
        },
        {
            "id": 8843565,
            "center": {
                "lat": 59.8932482,
                "lon": 29.7852259
            },
            "tags": {
                "amenity": "university",
                "name": "ВНИИМ им. Д.И.Менделеева ФГУП Ломоносовское отделение"
            }
        },
        {
            "id": 8852379,
            "center": {
                "lat": 59.9567483,
                "lon": 30.309353
            },
            "tags": {
                "addr:housenumber": "49",
                "addr:street": "Кронверкский проспект",
                "amenity": "university",
                "name": "Университет ИТМО",
                "website": "http://www.ifmo.ru/"
            }
        },
        {
            "id": 8884334,
            "center": {
                "lat": 59.7130629,
                "lon": 30.4146208
            },
            "tags": {
                "amenity": "university",
                "name": "Первый пограничный кадетский военный корпус ФСБ РФ",
                "website": "http://ppkvk.fsb.ru"
            }
        },
        {
            "id": 8884339,
            "center": {
                "lat": 59.7118926,
                "lon": 30.4136361
            },
            "tags": {
                "amenity": "university",
                "name": "Центр профессиональной подготовки ГУ МВД России по г. Санкт-Петербургу и Ленинградской области"
            }
        },
        {
            "id": 9086876,
            "center": {
                "lat": 60.0085584,
                "lon": 30.3846039
            },
            "tags": {
                "amenity": "university",
                "name": "СПбГПУ, Радиофизический факультет, Антенный полигон радиотехнических и сейсмологических систем мониторинга"
            }
        },
        {
            "id": 9086925,
            "center": {
                "lat": 60.0091822,
                "lon": 30.3884112
            },
            "tags": {
                "amenity": "university",
                "name": "Высоковольтный комплекc"
            }
        },
        {
            "id": 9262683,
            "center": {
                "lat": 59.9342759,
                "lon": 30.263346
            },
            "tags": {
                "amenity": "university",
                "name": "Юридический факультет СПбГУ"
            }
        },
        {
            "id": 9311053,
            "center": {
                "lat": 59.9937491,
                "lon": 30.3423679
            },
            "tags": {
                "amenity": "university",
                "name": "Санкт-Петербургский государственный лесотехнический университет имени С. М. Кирова"
            }
        },
        {
            "id": 9461146,
            "center": {
                "lat": 59.9590159,
                "lon": 30.2811304
            },
            "tags": {
                "amenity": "university",
                "name": "Военно-космическая академия имени А. Ф. Можайского"
            }
        },
        {
            "id": 11087335,
            "center": {
                "lat": 59.7096627,
                "lon": 30.4430482
            },
            "tags": {
                "addr:housenumber": "3",
                "addr:street": "Фильтровское шоссе",
                "amenity": "university",
                "name": "Институт Агроинженерных и Экологических Проблем сельскохозяйственного производства",
                "website": "https://www.sznii.ru/"
            }
        },
        {
            "id": 12683287,
            "center": {
                "lat": 59.7162178,
                "lon": 30.4019128
            },
            "tags": {
                "amenity": "university",
                "name": "Санкт-Петербургский государственный аграрный университет, 6-ой учебный корпус",
                "website": "http://www.spbgau.spb.ru"
            }
        },
        {
            "id": 13050119,
            "center": {
                "lat": 59.9218136,
                "lon": 30.4092244
            },
            "tags": {
                "amenity": "university",
                "name": "Российский государственный гидрометеорологический университет"
            }
        },
        {
            "id": 13300259,
            "center": {
                "lat": 59.8435071,
                "lon": 30.135921
            },
            "tags": {
                "amenity": "university",
                "name": "Санкт-Петербургский университет МВД России"
            }
        },
        {
            "id": 14116105,
            "center": {
                "lat": 59.6837922,
                "lon": 30.4715567
            },
            "tags": {
                "amenity": "university",
                "name": "ЛГУ им. А.С.Пушкина, Факультет специального образования, Факультет естествознания, географии и туризма"
            }
        }
    ]
}